STARLINK-30191          
1 57413U 23102K   26068.33620404 -.00002114  00000+0 -67356-4 0  9992
2 57413  43.0051 188.6450 0001359 246.2727 113.7982 15.27568618146916
FLOCK 4G-18             
1 62680U 25009BZ  26068.19114186  .00011766  00000+0  44319-3 0  9995
2 62680  97.4054 150.5008 0004100 335.7331  24.3715 15.27241676121267
